[{"OBJECT_NAME":"STARLINK-4330","OBJECT_ID":"2022-077AP","EPOCH":"2026-03-09T11:50:48.358464","MEAN_MOTION":15.05645708,"ECCENTRICITY":0.00015073,"INCLINATION":97.6026,"RA_OF_ASC_NODE":251.0179,"ARG_OF_PERICENTER":89.9655,"MEAN_ANOMALY":270.1745,"EPHEMERIS_TYPE":0,"CLASSIFICATION_TYPE":"U","NORAD_CAT_ID":53080,"ELEMENT_SET_NO":999,"REV_AT_EPOCH":20095,"BSTAR":-1.9386071e-5,"MEAN_MOTION_DOT":-3.4e-6,"MEAN_MOTION_DDOT":0},{"OBJECT_NAME":"CZ-6A DEB","OBJECT_ID":"2024-140FD","EPOCH":"2026-03-09T14:27:44.906112","MEAN_MOTION":14.99694865,"ECCENTRICITY":0.0039811,"INCLINATION":89.0027,"RA_OF_ASC_NODE":280.8171,"ARG_OF_PERICENTER":188.2594,"MEAN_ANOMALY":171.7991,"EPHEMERIS_TYPE":0,"CLASSIFICATION_TYPE":"U","NORAD_CAT_ID":60778,"ELEMENT_SET_NO":999,"REV_AT_EPOCH":8450,"BSTAR":0.0048584,"MEAN_MOTION_DOT":0.00061368,"MEAN_MOTION_DDOT":0}]
